OBJECT_NAME,OBJECT_ID,EPOCH,MEAN_MOTION,ECCENTRICITY,INCLINATION,RA_OF_ASC_NODE,ARG_OF_PERICENTER,MEAN_ANOMALY,EPHEMERIS_TYPE,CLASSIFICATION_TYPE,NORAD_CAT_ID,ELEMENT_SET_NO,REV_AT_EPOCH,BSTAR,MEAN_MOTION_DOT,MEAN_MOTION_DDOT
KUIPER-00105,2025-171M,2026-02-27T03:13:55.658208,14.80225158,.00040441,51.8775,212.3164,101.0664,259.0754,0,U,65143,999,3122,-.43099703E-2,-.33151E-3,0
KUIPER-00106,2025-171N,2026-02-25T19:52:31.691712,14.97113642,.00076707,51.8916,208.8645,62.9125,297.2627,0,U,65144,999,3116,.56202549E-3,.6305E-4,0
KUIPER-00107,2025-171P,2026-02-26T17:57:46.308960,14.79904530,.00002811,51.8983,196.4736,95.7175,264.3820,0,U,65145,999,3141,.69668873E-3,.5091E-4,0
KUIPER-00108,2025-171Q,2026-02-26T10:20:39.662304,14.79922267,.0001895,51.9011,210.3913,142.8320,217.2774,0,U,65146,999,3119,.56308E-3,.4073E-4,0
KUIPER-00109,2025-171R,2026-02-26T09:39:45.461664,14.79928130,.0000525,51.9000,205.4595,96.4282,263.6740,0,U,65147,999,3125,.47964E-3,.3437E-4,0
KUIPER-00110,2025-171S,2026-02-27T03:59:56.695488,14.79855818,.00023231,51.8975,214.6788,153.1339,206.9744,0,U,65148,999,3118,.55227872E-3,.3984E-4,0
KUIPER-00111,2025-171T,2026-02-26T20:33:15.110496,14.79948433,.0002212,51.8952,220.9546,121.9045,238.2133,0,U,65149,999,3107,.54073E-3,.3905E-4,0
KUIPER-00112,2025-171U,2026-02-26T10:28:32.855232,14.79915915,.0000598,51.8997,205.3644,111.3854,248.7172,0,U,65150,999,3125,.5872E-3,.4256E-4,0
KUIPER-00114,2025-171V,2026-02-27T04:35:37.223520,14.79936034,.0001779,51.8988,222.0263,117.4135,242.7008,0,U,65151,999,3108,.12266288E-3,.714E-5,0
KUIPER-00115,2025-171W,2026-02-27T03:09:51.351840,14.79934213,.0000739,51.8986,214.7758,98.2758,261.8288,0,U,65152,999,3118,.43628368E-3,.3106E-4,0
KUIPER-00116,2025-171X,2026-02-26T21:21:52.957728,14.79930700,.0001757,51.8979,220.8833,116.5356,243.5786,0,U,65153,999,3107,.59403E-3,.431E-4,0
KUIPER-00118,2025-171Y,2026-02-27T03:46:55.596288,14.79944138,.00004077,51.8987,222.1578,86.5748,273.5261,0,U,65154,999,3108,.12092666E-2,.9012E-4,0
KUIPER-00119,2025-171Z,2026-02-26T20:00:06.327648,14.79989896,.00016063,51.8981,211.1744,118.6269,241.4855,0,U,65155,999,3120,.59215707E-3,.4302E-4,0
METOP-SGA1,2025-172A,2026-02-27T03:16:59.817216,14.21550129,.00012614,98.6782,119.7795,106.9977,253.1338,0,U,65159,999,2815,.43399943E-4,.52E-6,0
HULIANWANG DIGUI-58,2025-174A,2026-02-27T06:26:22.713216,13.24420511,.00012417,86.4936,289.1537,81.4311,278.6964,0,U,65164,999,2624,.1403552E-3,.75E-6,0
HULIANWANG DIGUI-59,2025-174B,2026-02-27T06:37:15.187008,13.24420644,.00012342,86.4897,289.0830,80.4600,279.6673,0,U,65165,999,2624,.13896283E-3,.74E-6,0
HULIANWANG DIGUI-60,2025-174C,2026-02-27T06:48:05.658912,13.24420879,.00011948,86.4929,289.1480,82.1012,278.0258,0,U,65166,999,2624,.12618109E-3,.69E-6,0
HULIANWANG DIGUI-61,2025-174D,2026-02-27T05:10:15.408768,13.24419449,.00011575,86.4938,289.1932,80.2637,279.8628,0,U,65167,999,2623,.10988184E-3,.62E-6,0
HULIANWANG DIGUI-62,2025-174E,2026-02-27T05:21:04.665888,13.24420789,.00011361,86.4879,289.0834,82.6956,277.4307,0,U,65168,999,2623,.94649837E-4,.55E-6,0
HULIANWANG DIGUI-63,2025-174F,2026-02-27T05:31:56.247168,13.24421150,.00011747,86.4932,289.1872,80.7441,279.3826,0,U,65169,999,2623,.51503898E-4,.37E-6,0
HULIANWANG DIGUI-64,2025-174G,2026-02-27T05:42:49.174560,13.24421164,.00011454,86.4891,289.1124,82.5049,277.6215,0,U,65170,999,2623,.46112485E-4,.34E-6,0
HULIANWANG DIGUI-65,2025-174H,2026-02-27T06:04:30.961632,13.24421687,.00011998,86.4854,289.0487,81.4159,278.7111,0,U,65171,999,2623,.71104172E-4,.45E-6,0
HULIANWANG DIGUI-66,2025-174J,2026-02-27T05:53:40.227936,13.24421329,.0001223,86.4889,289.1154,84.3733,275.7541,0,U,65172,999,2623,.4762765E-4,.35E-6,0
HULIANWANG DIGUI-67,2025-174K,2026-02-27T06:15:28.249632,13.24420967,.00012278,86.4901,289.1431,82.6665,277.4608,0,U,65173,999,2620,.11051699E-3,.62E-6,0
STARLINK-34956,2025-175A,2026-02-27T05:50:12.722784,15.05651617,.00025703,97.6036,292.2849,86.9832,273.1689,0,U,65174,999,3103,.15934724E-3,.2239E-4,0
STARLINK-34949,2025-175B,2026-02-27T04:10:29.953920,15.05655207,.00035828,97.5986,292.2283,94.5242,265.6395,0,U,65175,999,3106,-.25205931E-3,-.3697E-4,0
STARLINK-34707,2025-175C,2026-02-27T05:42:14.920416,15.05639546,.00025425,97.6018,292.2917,91.1066,269.0452,0,U,65176,999,3106,.31625511E-4,.395E-5,0
STARLINK-34967,2025-175D,2026-02-27T05:38:15.893088,15.05655335,.0002404,97.6027,292.2958,78.5455,281.6042,0,U,65177,999,3106,.48054998E-3,.6881E-4,0
STARLINK-34929,2025-175E,2026-02-27T05:34:15.855744,15.05645159,.00025459,97.6026,292.2987,93.0443,267.1075,0,U,65178,999,3106,.56065106E-3,.8037E-4,0
STARLINK-34932,2025-175F,2026-02-27T05:26:17.946240,15.05654048,.00039492,97.5994,292.3097,66.2170,293.9470,0,U,65179,999,3106,.252844E-3,.359E-4,0
