KUIPER-00105            
1 65143U 25171M   26058.13467197 -.00033151  00000+0 -43100-2 0  9998
2 65143  51.8775 212.3164 0004044 101.0664 259.0754 14.80225158 31229
KUIPER-00106            
1 65144U 25171N   26056.82814458  .00006305  00000+0  56203-3 0  9997
2 65144  51.8916 208.8645 0007670  62.9125 297.2627 14.97113642 31164
KUIPER-00107            
1 65145U 25171P   26057.74845265  .00005091  00000+0  69669-3 0  9991
2 65145  51.8983 196.4736 0000281  95.7175 264.3820 14.79904530 31414
KUIPER-00108            
1 65146U 25171Q   26057.43101461  .00004073  00000+0  56308-3 0  9996
2 65146  51.9011 210.3913 0001895 142.8320 217.2774 14.79922267 31196
KUIPER-00109            
1 65147U 25171R   26057.40260951  .00003437  00000+0  47964-3 0  9995
2 65147  51.9000 205.4595 0000525  96.4282 263.6740 14.79928130 31256
KUIPER-00110            
1 65148U 25171S   26058.16662842  .00003984  00000+0  55228-3 0  9994
2 65148  51.8975 214.6788 0002323 153.1339 206.9744 14.79855818 31183
KUIPER-00111            
1 65149U 25171T   26057.85642489  .00003905  00000+0  54073-3 0  9995
2 65149  51.8952 220.9546 0002212 121.9045 238.2133 14.79948433 31079
KUIPER-00112            
1 65150U 25171U   26057.43649138  .00004256  00000+0  58720-3 0  9992
2 65150  51.8997 205.3644 0000598 111.3854 248.7172 14.79915915 31250
KUIPER-00114            
1 65151U 25171V   26058.19140305  .00000714  00000+0  12266-3 0  9999
2 65151  51.8988 222.0263 0001779 117.4135 242.7008 14.79936034 31083
KUIPER-00115            
1 65152U 25171W   26058.13184435  .00003106  00000+0  43628-3 0  9990
2 65152  51.8986 214.7758 0000739  98.2758 261.8288 14.79934213 31181
KUIPER-00116            
1 65153U 25171X   26057.89019627  .00004310  00000+0  59403-3 0  9999
2 65153  51.8979 220.8833 0001757 116.5356 243.5786 14.79930700 31070
KUIPER-00118            
1 65154U 25171Y   26058.15758792  .00009012  00000+0  12093-2 0  9990
2 65154  51.8987 222.1578 0000407  86.5748 273.5261 14.79944138 31085
KUIPER-00119            
1 65155U 25171Z   26057.83340657  .00004302  00000+0  59216-3 0  9998
2 65155  51.8981 211.1744 0001606 118.6269 241.4855 14.79989896 31207
METOP-SGA1              
1 65159U 25172A   26058.13680344  .00000052  00000+0  43400-4 0  9994
2 65159  98.6782 119.7795 0001261 106.9977 253.1338 14.21550129 28157
HULIANWANG DIGUI-58     
1 65164U 25174A   26058.26831844  .00000075  00000+0  14036-3 0  9996
2 65164  86.4936 289.1537 0001241  81.4311 278.6964 13.24420511 26240
HULIANWANG DIGUI-59     
1 65165U 25174B   26058.27587022  .00000074  00000+0  13896-3 0  9996
2 65165  86.4897 289.0830 0001234  80.4600 279.6673 13.24420644 26249
HULIANWANG DIGUI-60     
1 65166U 25174C   26058.28339883  .00000069  00000+0  12618-3 0  9993
2 65166  86.4929 289.1480 0001194  82.1012 278.0258 13.24420879 26241
HULIANWANG DIGUI-61     
1 65167U 25174D   26058.21545612  .00000062  00000+0  10988-3 0  9997
2 65167  86.4938 289.1932 0001157  80.2637 279.8628 13.24419449 26235
HULIANWANG DIGUI-62     
1 65168U 25174E   26058.22297067  .00000055  00000+0  94650-4 0  9998
2 65168  86.4879 289.0834 0001136  82.6956 277.4307 13.24420789 26234
HULIANWANG DIGUI-63     
1 65169U 25174F   26058.23051212  .00000037  00000+0  51504-4 0  9991
2 65169  86.4932 289.1872 0001174  80.7441 279.3826 13.24421150 26238
HULIANWANG DIGUI-64     
1 65170U 25174G   26058.23806915  .00000034  00000+0  46112-4 0  9997
2 65170  86.4891 289.1124 0001145  82.5049 277.6215 13.24421164 26234
HULIANWANG DIGUI-65     
1 65171U 25174H   26058.25313613  .00000045  00000+0  71104-4 0  9999
2 65171  86.4854 289.0487 0001199  81.4159 278.7111 13.24421687 26231
HULIANWANG DIGUI-66     
1 65172U 25174J   26058.24560449  .00000035  00000+0  47628-4 0  9993
2 65172  86.4889 289.1154 0001223  84.3733 275.7541 13.24421329 26237
HULIANWANG DIGUI-67     
1 65173U 25174K   26058.26074363  .00000062  00000+0  11052-3 0  9992
2 65173  86.4901 289.1431 0001227  82.6665 277.4608 13.24420967 26207
STARLINK-34956          
1 65174U 25175A   26058.24320281  .00002239  00000+0  15935-3 0  9997
2 65174  97.6036 292.2849 0002570  86.9832 273.1689 15.05651617 31032
STARLINK-34949          
1 65175U 25175B   26058.17395780 -.00003697  00000+0 -25206-3 0  9999
2 65175  97.5986 292.2283 0003582  94.5242 265.6395 15.05655207 31064
STARLINK-34707          
1 65176U 25175C   26058.23767269  .00000395  00000+0  31626-4 0  9996
2 65176  97.6018 292.2917 0002542  91.1066 269.0452 15.05639546 31068
STARLINK-34967          
1 65177U 25175D   26058.23490617  .00006881  00000+0  48055-3 0  9996
2 65177  97.6027 292.2958 0002404  78.5455 281.6042 15.05655335 31061
STARLINK-34929          
1 65178U 25175E   26058.23212796  .00008037  00000+0  56065-3 0  9992
2 65178  97.6026 292.2987 0002545  93.0443 267.1075 15.05645159 31066
STARLINK-34932          
1 65179U 25175F   26058.22659660  .00003590  00000+0  25284-3 0  9995
2 65179  97.5994 292.3097 0003949  66.2170 293.9470 15.05654048 31064
